STARLINK-30494          
1 57970U 23151G   26068.36049035 -.00001272  00000+0 -35691-4 0  9993
2 57970  43.0027 192.4566 0001155 241.5536 118.5200 15.28417441137406
STARLINK-31342          
1 59166U 24044Q   26068.80264610 -.00001209  00000+0 -34448-4 0  9990
2 59166  43.0028 106.3237 0000765 250.4263 109.6507 15.27566272113611
